{
  "type": "FeatureCollection",
  "features": [
    {
      "type": "Feature",
      "properties": {
        "norad_id": 65731,
        "name": "1998-067XK",
        "group": "stations",
        "lat": -42.97170617703161,
        "lon": 8.827688867228678,
        "alt_km": 372.5350875202621,
        "timestamp": "2025-12-11T22:43:46.044888+00:00",
        "meta_object_name": "1998-067XK",
        "meta_object_id": "1998-067XK",
        "meta_epoch": "2025-12-11T10:58:56.610624",
        "meta_mean_motion": 15.65405996,
        "meta_eccentricity": 0.00051121,
        "meta_inclination": 51.6282,
        "meta_ra_of_asc_node": 143.7363,
        "meta_arg_of_pericenter": 237.7502,
        "meta_mean_anomaly": 122.2999,
        "meta_ephemeris_type": 0,
        "meta_classification_type": "U",
        "meta_norad_cat_id": 65731,
        "meta_element_set_no": 999,
        "meta_rev_at_epoch": 1294,
        "meta_bstar": 0.0014701886,
        "meta_mean_motion_dot": 0.00152029,
        "meta_mean_motion_ddot": 0,
        "tle_line1": "1 65731U 98067XK  25345.45759966  .00152029  00000+0  14702-2 0  9996",
        "tle_line2": "2 65731  51.6282 143.7363 0005112 237.7502 122.2999 15.65405996 12940"
      },
      "geometry": {
        "type": "Point",
        "coordinates": [
          8.827688867228678,
          -42.97170617703161
        ]
      }
    },
    {
      "type": "Feature",
      "properties": {
        "norad_id": 65732,
        "name": "RSP-03",
        "group": "stations",
        "lat": -19.114721090189935,
        "lon": -23.49170900074071,
        "alt_km": 363.38433431494013,
        "timestamp": "2025-12-11T22:43:46.044902+00:00",
        "meta_object_name": "RSP-03",
        "meta_object_id": "1998-067XL",
        "meta_epoch": "2025-12-11T11:09:18.310464",
        "meta_mean_motion": 15.68184189,
        "meta_eccentricity": 0.00058259,
        "meta_inclination": 51.626,
        "meta_ra_of_asc_node": 143.0256,
        "meta_arg_of_pericenter": 242.1359,
        "meta_mean_anomaly": 117.9048,
        "meta_ephemeris_type": 0,
        "meta_classification_type": "U",
        "meta_norad_cat_id": 65732,
        "meta_element_set_no": 999,
        "meta_rev_at_epoch": 1296,
        "meta_bstar": 0.0016947067,
        "meta_mean_motion_dot": 0.00197326,
        "meta_mean_motion_ddot": 0,
        "tle_line1": "1 65732U 98067XL  25345.46479526  .00197326  00000+0  16947-2 0  9991",
        "tle_line2": "2 65732  51.6260 143.0256 0005825 242.1359 117.9048 15.68184189 12961"
      },
      "geometry": {
        "type": "Point",
        "coordinates": [
          -23.49170900074071,
          -19.114721090189935
        ]
      }
    },
    {
      "type": "Feature",
      "properties": {
        "norad_id": 65733,
        "name": "GHS-01",
        "group": "stations",
        "lat": 49.36981641813598,
        "lon": -108.16659695238245,
        "alt_km": 344.26268920987513,
        "timestamp": "2025-12-11T22:43:46.044913+00:00",
        "meta_object_name": "GHS-01",
        "meta_object_id": "1998-067XM",
        "meta_epoch": "2025-12-11T04:00:14.108544",
        "meta_mean_motion": 15.73916996,
        "meta_eccentricity": 0.00069838,
        "meta_inclination": 51.6283,
        "meta_ra_of_asc_node": 143.2841,
        "meta_arg_of_pericenter": 269.574,
        "meta_mean_anomaly": 90.4459,
        "meta_ephemeris_type": 0,
        "meta_classification_type": "U",
        "meta_norad_cat_id": 65733,
        "meta_element_set_no": 999,
        "meta_rev_at_epoch": 1293,
        "meta_bstar": 0.0018348813,
        "meta_mean_motion_dot": 0.0027452,
        "meta_mean_motion_ddot": 0,
        "tle_line1": "1 65733U 98067XM  25345.16682996  .00274520  00000+0  18349-2 0  9996",
        "tle_line2": "2 65733  51.6283 143.2841 0006983 269.5740  90.4459 15.73916996 12935"
      },
      "geometry": {
        "type": "Point",
        "coordinates": [
          -108.16659695238245,
          49.36981641813598
        ]
      }
    },
    {
      "type": "Feature",
      "properties": {
        "norad_id": 65941,
        "name": "YOTSUBA-KULOVER",
        "group": "stations",
        "lat": 14.931558316467292,
        "lon": 156.15973526945615,
        "alt_km": 388.93666033196496,
        "timestamp": "2025-12-11T22:43:46.044924+00:00",
        "meta_object_name": "YOTSUBA-KULOVER",
        "meta_object_id": "1998-067XN",
        "meta_epoch": "2025-12-11T11:52:49.487808",
        "meta_mean_motion": 15.59226693,
        "meta_eccentricity": 0.00014696,
        "meta_inclination": 51.6283,
        "meta_ra_of_asc_node": 146.2338,
        "meta_arg_of_pericenter": 240.9141,
        "meta_mean_anomaly": 119.1704,
        "meta_ephemeris_type": 0,
        "meta_classification_type": "U",
        "meta_norad_cat_id": 65941,
        "meta_element_set_no": 999,
        "meta_rev_at_epoch": 966,
        "meta_bstar": 0.0013142687,
        "meta_mean_motion_dot": 0.00106075,
        "meta_mean_motion_ddot": 0,
        "tle_line1": "1 65941U 98067XN  25345.49501722  .00106075  00000+0  13143-2 0  9996",
        "tle_line2": "2 65941  51.6283 146.2338 0001469 240.9141 119.1704 15.59226693  9662"
      },
      "geometry": {
        "type": "Point",
        "coordinates": [
          156.15973526945615,
          14.931558316467292
        ]
      }
    },
    {
      "type": "Feature",
      "properties": {
        "norad_id": 65942,
        "name": "BOTAN",
        "group": "stations",
        "lat": -17.0016555157253,
        "lon": 129.27615441636055,
        "alt_km": 383.2167614588079,
        "timestamp": "2025-12-11T22:43:46.044935+00:00",
        "meta_object_name": "BOTAN",
        "meta_object_id": "1998-067XP",
        "meta_epoch": "2025-12-11T10:32:37.738752",
        "meta_mean_motion": 15.6250621,
        "meta_eccentricity": 0.00032819,
        "meta_inclination": 51.628,
        "meta_ra_of_asc_node": 145.8622,
        "meta_arg_of_pericenter": 229.3853,
        "meta_mean_anomaly": 130.6856,
        "meta_ephemeris_type": 0,
        "meta_classification_type": "U",
        "meta_norad_cat_id": 65942,
        "meta_element_set_no": 999,
        "meta_rev_at_epoch": 966,
        "meta_bstar": 0.0018041945,
        "meta_mean_motion_dot": 0.00166728,
        "meta_mean_motion_ddot": 0,
        "tle_line1": "1 65942U 98067XP  25345.43932568  .00166728  00000+0  18042-2 0  9991",
        "tle_line2": "2 65942  51.6280 145.8622 0003281 229.3853 130.6856 15.62506210  9662"
      },
      "geometry": {
        "type": "Point",
        "coordinates": [
          129.27615441636055,
          -17.0016555157253
        ]
      }
    },
    {
      "type": "Feature",
      "properties": {
        "norad_id": 65943,
        "name": "E-KAGAKU-1",
        "group": "stations",
        "lat": 15.033648946854209,
        "lon": 156.23915741898736,
        "alt_km": 391.66950503593034,
        "timestamp": "2025-12-11T22:43:46.044946+00:00",
        "meta_object_name": "E-KAGAKU-1",
        "meta_object_id": "1998-067XQ",
        "meta_epoch": "2025-12-10T06:39:08.237952",
        "meta_mean_motion": 15.5900432,
        "meta_eccentricity": 0.00052507,
        "meta_inclination": 51.6298,
        "meta_ra_of_asc_node": 152.3458,
        "meta_arg_of_pericenter": 191.2269,
        "meta_mean_anomaly": 168.8608,
        "meta_ephemeris_type": 0,
        "meta_classification_type": "U",
        "meta_norad_cat_id": 65943,
        "meta_element_set_no": 999,
        "meta_rev_at_epoch": 947,
        "meta_bstar": 0.0012588803,
        "meta_mean_motion_dot": 0.00100705,
        "meta_mean_motion_ddot": 0,
        "tle_line1": "1 65943U 98067XQ  25344.27717868  .00100705  00000+0  12589-2 0  9990",
        "tle_line2": "2 65943  51.6298 152.3458 0005250 191.2269 168.8608 15.59004320  9476"
      },
      "geometry": {
        "type": "Point",
        "coordinates": [
          156.23915741898736,
          15.033648946854209
        ]
      }
    },
    {
      "type": "Feature",
      "properties": {
        "norad_id": 66052,
        "name": "HRC MONOBLOCK CAMERA",
        "group": "stations",
        "lat": 14.060285695335216,
        "lon": 156.90352059633472,
        "alt_km": 405.94333973711855,
        "timestamp": "2025-12-11T22:43:46.044958+00:00",
        "meta_object_name": "HRC MONOBLOCK CAMERA",
        "meta_object_id": "1998-067XR",
        "meta_epoch": "2025-12-11T04:07:53.480928",
        "meta_mean_motion": 15.53961179,
        "meta_eccentricity": 0.00035327,
        "meta_inclination": 51.6288,
        "meta_ra_of_asc_node": 149.3227,
        "meta_arg_of_pericenter": 176.6815,
        "meta_mean_anomaly": 183.4199,
        "meta_ephemeris_type": 0,
        "meta_classification_type": "U",
        "meta_norad_cat_id": 66052,
        "meta_element_set_no": 999,
        "meta_rev_at_epoch": 859,
        "meta_bstar": 0.00078110434,
        "meta_mean_motion_dot": 0.00051254,
        "meta_mean_motion_ddot": 0,
        "tle_line1": "1 66052U 98067XR  25345.17214677  .00051254  00000+0  78110-3 0  9999",
        "tle_line2": "2 66052  51.6288 149.3227 0003532 176.6815 183.4199 15.53961179  8590"
      },
      "geometry": {
        "type": "Point",
        "coordinates": [
          156.90352059633472,
          14.060285695335216
        ]
      }
    }
  ]
}